CCSDS_OMM_VERS = 2.0
CREATION_DATE  = 
ORIGINATOR     = 

OBJECT_NAME    = HULIANWANG DIGUI-125
OBJECT_ID      = 2025-295G
CENTER_NAME    = EARTH
REF_FRAME      = TEME
TIME_SYSTEM    = UTC
MEAN_ELEMENT_THEORY = SGP/SGP4

EPOCH          = 2025-12-22T03:55:47.122176
MEAN_MOTION    = 14.25955199
ECCENTRICITY   = .0012268
INCLINATION    = 50.0010
RA_OF_ASC_NODE = 332.4174
ARG_OF_PERICENTER = 286.4232
MEAN_ANOMALY   = 73.5333

EPHEMERIS_TYPE = 0
CLASSIFICATION_TYPE = U
NORAD_CAT_ID   = 67065
ELEMENT_SET_NO = 999
REV_AT_EPOCH   = 146
BSTAR          = .7736E-4
MEAN_MOTION_DOT = .26E-6
MEAN_MOTION_DDOT = 0

CCSDS_OMM_VERS = 2.0
CREATION_DATE  = 
ORIGINATOR     = 

OBJECT_NAME    = HULIANWANG DIGUI-126
OBJECT_ID      = 2025-295H
CENTER_NAME    = EARTH
REF_FRAME      = TEME
TIME_SYSTEM    = UTC
MEAN_ELEMENT_THEORY = SGP/SGP4

EPOCH          = 2025-12-22T02:13:23.200896
MEAN_MOTION    = 14.26098108
ECCENTRICITY   = .0011425
INCLINATION    = 50.0013
RA_OF_ASC_NODE = 332.7072
ARG_OF_PERICENTER = 283.3436
MEAN_ANOMALY   = 76.6204

EPHEMERIS_TYPE = 0
CLASSIFICATION_TYPE = U
NORAD_CAT_ID   = 67066
ELEMENT_SET_NO = 999
REV_AT_EPOCH   = 145
BSTAR          = .76091E-4
MEAN_MOTION_DOT = .23E-6
MEAN_MOTION_DDOT = 0

CCSDS_OMM_VERS = 2.0
CREATION_DATE  = 
ORIGINATOR     = 

OBJECT_NAME    = HULIANWANG DIGUI-127
OBJECT_ID      = 2025-295J
CENTER_NAME    = EARTH
REF_FRAME      = TEME
TIME_SYSTEM    = UTC
MEAN_ELEMENT_THEORY = SGP/SGP4

EPOCH          = 2025-12-22T02:11:57.707232
MEAN_MOTION    = 14.26249669
ECCENTRICITY   = .0010884
INCLINATION    = 50.0053
RA_OF_ASC_NODE = 332.7098
ARG_OF_PERICENTER = 287.0139
MEAN_ANOMALY   = 72.9582

EPHEMERIS_TYPE = 0
CLASSIFICATION_TYPE = U
NORAD_CAT_ID   = 67067
ELEMENT_SET_NO = 999
REV_AT_EPOCH   = 145
BSTAR          = -.2889E-3
MEAN_MOTION_DOT = -.858E-5
MEAN_MOTION_DDOT = 0

CCSDS_OMM_VERS = 2.0
CREATION_DATE  = 
ORIGINATOR     = 

OBJECT_NAME    = CZ-12 R/B
OBJECT_ID      = 2025-295K
CENTER_NAME    = EARTH
REF_FRAME      = TEME
TIME_SYSTEM    = UTC
MEAN_ELEMENT_THEORY = SGP/SGP4

EPOCH          = 2025-12-22T03:02:04.955136
MEAN_MOTION    = 14.41129028
ECCENTRICITY   = .0056879
INCLINATION    = 49.9943
RA_OF_ASC_NODE = 331.5620
ARG_OF_PERICENTER = 169.5544
MEAN_ANOMALY   = 190.6571

EPHEMERIS_TYPE = 0
CLASSIFICATION_TYPE = U
NORAD_CAT_ID   = 67068
ELEMENT_SET_NO = 999
REV_AT_EPOCH   = 146
BSTAR          = .66353E-5
MEAN_MOTION_DOT = -.147E-5
MEAN_MOTION_DDOT = 0

CCSDS_OMM_VERS = 2.0
CREATION_DATE  = 
ORIGINATOR     = 

OBJECT_NAME    = XIWANG-5 02
OBJECT_ID      = 2025-296A
CENTER_NAME    = EARTH
REF_FRAME      = TEME
TIME_SYSTEM    = UTC
MEAN_ELEMENT_THEORY = SGP/SGP4

EPOCH          = 2025-12-22T04:24:29.537280
MEAN_MOTION    = 15.16858617
ECCENTRICITY   = .0014498
INCLINATION    = 41.3524
RA_OF_ASC_NODE = 47.7051
ARG_OF_PERICENTER = 93.1142
MEAN_ANOMALY   = 267.1339

EPHEMERIS_TYPE = 0
CLASSIFICATION_TYPE = U
NORAD_CAT_ID   = 67069
ELEMENT_SET_NO = 999
REV_AT_EPOCH   = 139
BSTAR          = .61931E-3
MEAN_MOTION_DOT = .12273E-3
MEAN_MOTION_DDOT = 0

CCSDS_OMM_VERS = 2.0
CREATION_DATE  = 
ORIGINATOR     = 

OBJECT_NAME    = DEAR-5
OBJECT_ID      = 2025-296B
CENTER_NAME    = EARTH
REF_FRAME      = TEME
TIME_SYSTEM    = UTC
MEAN_ELEMENT_THEORY = SGP/SGP4

EPOCH          = 2025-12-22T02:48:27.541152
MEAN_MOTION    = 15.16896725
ECCENTRICITY   = .0016103
INCLINATION    = 41.3551
RA_OF_ASC_NODE = 48.0768
ARG_OF_PERICENTER = 94.0984
MEAN_ANOMALY   = 266.1678

EPHEMERIS_TYPE = 0
CLASSIFICATION_TYPE = U
NORAD_CAT_ID   = 67070
ELEMENT_SET_NO = 999
REV_AT_EPOCH   = 137
BSTAR          = .2573E-3
MEAN_MOTION_DOT = .4981E-4
MEAN_MOTION_DDOT = 0

CCSDS_OMM_VERS = 2.0
CREATION_DATE  = 
ORIGINATOR     = 

OBJECT_NAME    = KZ-11 R/B
OBJECT_ID      = 2025-296C
CENTER_NAME    = EARTH
REF_FRAME      = TEME
TIME_SYSTEM    = UTC
MEAN_ELEMENT_THEORY = SGP/SGP4

EPOCH          = 2025-12-22T01:51:00.637344
MEAN_MOTION    = 15.32362406
ECCENTRICITY   = .0494611
INCLINATION    = 41.3134
RA_OF_ASC_NODE = 50.7002
ARG_OF_PERICENTER = 18.7713
MEAN_ANOMALY   = 343.0666

EPHEMERIS_TYPE = 0
CLASSIFICATION_TYPE = U
NORAD_CAT_ID   = 67071
ELEMENT_SET_NO = 999
REV_AT_EPOCH   = 134
BSTAR          = .52429E-3
MEAN_MOTION_DOT = .8373198E-1
MEAN_MOTION_DDOT = .70501E-5

CCSDS_OMM_VERS = 2.0
CREATION_DATE  = 
ORIGINATOR     = 

OBJECT_NAME    = ELECTRON R/B
OBJECT_ID      = 2025-297A
CENTER_NAME    = EARTH
REF_FRAME      = TEME
TIME_SYSTEM    = UTC
MEAN_ELEMENT_THEORY = SGP/SGP4

EPOCH          = 2025-12-22T01:17:14.515008
MEAN_MOTION    = 16.05400874
ECCENTRICITY   = .0141819
INCLINATION    = 97.4600
RA_OF_ASC_NODE = 144.2862
ARG_OF_PERICENTER = 199.0675
MEAN_ANOMALY   = 160.5267

EPHEMERIS_TYPE = 0
CLASSIFICATION_TYPE = U
NORAD_CAT_ID   = 67072
ELEMENT_SET_NO = 999
REV_AT_EPOCH   = 126
BSTAR          = .1378E-2
MEAN_MOTION_DOT = .3950191E-1
MEAN_MOTION_DDOT = .21701E-5

CCSDS_OMM_VERS = 2.0
CREATION_DATE  = 
ORIGINATOR     = 

OBJECT_NAME    = RAISE-4
OBJECT_ID      = 2025-297B
CENTER_NAME    = EARTH
REF_FRAME      = TEME
TIME_SYSTEM    = UTC
MEAN_ELEMENT_THEORY = SGP/SGP4

EPOCH          = 2025-12-21T09:30:47.940480
MEAN_MOTION    = 15.07192134
ECCENTRICITY   = .00114098
INCLINATION    = 97.4855
RA_OF_ASC_NODE = 142.7124
ARG_OF_PERICENTER = 288.7486
MEAN_ANOMALY   = 71.2503

EPHEMERIS_TYPE = 0
CLASSIFICATION_TYPE = U
NORAD_CAT_ID   = 67073
ELEMENT_SET_NO = 999
REV_AT_EPOCH   = 109
BSTAR          = .21859428E-3
MEAN_MOTION_DOT = .3233E-4
MEAN_MOTION_DDOT = 0

CCSDS_OMM_VERS = 2.0
CREATION_DATE  = 
ORIGINATOR     = 

OBJECT_NAME    = ELECTRON KICK STAGE R/B
OBJECT_ID      = 2025-297C
CENTER_NAME    = EARTH
REF_FRAME      = TEME
TIME_SYSTEM    = UTC
MEAN_ELEMENT_THEORY = SGP/SGP4

EPOCH          = 2025-12-21T16:28:51.216096
MEAN_MOTION    = 15.57384666
ECCENTRICITY   = .0197675
INCLINATION    = 97.4819
RA_OF_ASC_NODE = 143.5670
ARG_OF_PERICENTER = 237.0162
MEAN_ANOMALY   = 121.1958

EPHEMERIS_TYPE = 0
CLASSIFICATION_TYPE = U
NORAD_CAT_ID   = 67074
ELEMENT_SET_NO = 999
REV_AT_EPOCH   = 117
BSTAR          = .16286E-2
MEAN_MOTION_DOT = .303953E-2
MEAN_MOTION_DDOT = .26563E-4

CCSDS_OMM_VERS = 2.0
CREATION_DATE  = 
ORIGINATOR     = 

OBJECT_NAME    = STARLINK-36230
OBJECT_ID      = 2025-298A
CENTER_NAME    = EARTH
REF_FRAME      = TEME
TIME_SYSTEM    = UTC
MEAN_ELEMENT_THEORY = SGP/SGP4

EPOCH          = 2025-12-22T04:00:01.998720
MEAN_MOTION    = 15.88555733
ECCENTRICITY   = .0004464
INCLINATION    = 69.9976
RA_OF_ASC_NODE = 223.2879
ARG_OF_PERICENTER = 269.9352
MEAN_ANOMALY   = 65.3698

EPHEMERIS_TYPE = 0
CLASSIFICATION_TYPE = U
NORAD_CAT_ID   = 67075
ELEMENT_SET_NO = 999
REV_AT_EPOCH   = 249
BSTAR          = .3433E-3
MEAN_MOTION_DOT = .96715E-3
MEAN_MOTION_DDOT = 0

CCSDS_OMM_VERS = 2.0
CREATION_DATE  = 
ORIGINATOR     = 

OBJECT_NAME    = STARLINK-36240
OBJECT_ID      = 2025-298B
CENTER_NAME    = EARTH
REF_FRAME      = TEME
TIME_SYSTEM    = UTC
MEAN_ELEMENT_THEORY = SGP/SGP4

EPOCH          = 2025-12-22T04:00:01.998720
MEAN_MOTION    = 15.88604298
ECCENTRICITY   = .000451
INCLINATION    = 69.9975
RA_OF_ASC_NODE = 223.2854
ARG_OF_PERICENTER = 265.5274
MEAN_ANOMALY   = 71.5377

EPHEMERIS_TYPE = 0
CLASSIFICATION_TYPE = U
NORAD_CAT_ID   = 67076
ELEMENT_SET_NO = 999
REV_AT_EPOCH   = 249
BSTAR          = .34558E-3
MEAN_MOTION_DOT = .97605E-3
MEAN_MOTION_DDOT = 0

CCSDS_OMM_VERS = 2.0
CREATION_DATE  = 
ORIGINATOR     = 

OBJECT_NAME    = STARLINK-36243
OBJECT_ID      = 2025-298C
CENTER_NAME    = EARTH
REF_FRAME      = TEME
TIME_SYSTEM    = UTC
MEAN_ELEMENT_THEORY = SGP/SGP4

EPOCH          = 2025-12-22T04:00:01.998720
MEAN_MOTION    = 15.88939796
ECCENTRICITY   = .000449
INCLINATION    = 69.9974
RA_OF_ASC_NODE = 223.2835
ARG_OF_PERICENTER = 273.0079
MEAN_ANOMALY   = 66.2196

EPHEMERIS_TYPE = 0
CLASSIFICATION_TYPE = U
NORAD_CAT_ID   = 67077
ELEMENT_SET_NO = 999
REV_AT_EPOCH   = 249
BSTAR          = .18082E-2
MEAN_MOTION_DOT = .547253E-2
MEAN_MOTION_DDOT = 0

CCSDS_OMM_VERS = 2.0
CREATION_DATE  = 
ORIGINATOR     = 

OBJECT_NAME    = STARLINK-36236
OBJECT_ID      = 2025-298D
CENTER_NAME    = EARTH
REF_FRAME      = TEME
TIME_SYSTEM    = UTC
MEAN_ELEMENT_THEORY = SGP/SGP4

EPOCH          = 2025-12-22T04:00:01.998720
MEAN_MOTION    = 15.88705846
ECCENTRICITY   = .0004622
INCLINATION    = 69.9974
RA_OF_ASC_NODE = 223.2810
ARG_OF_PERICENTER = 269.0288
MEAN_ANOMALY   = 71.7769

EPHEMERIS_TYPE = 0
CLASSIFICATION_TYPE = U
NORAD_CAT_ID   = 67078
ELEMENT_SET_NO = 999
REV_AT_EPOCH   = 249
BSTAR          = .3421E-3
MEAN_MOTION_DOT = .97108E-3
MEAN_MOTION_DDOT = 0

CCSDS_OMM_VERS = 2.0
CREATION_DATE  = 
ORIGINATOR     = 

OBJECT_NAME    = STARLINK-36159
OBJECT_ID      = 2025-298E
CENTER_NAME    = EARTH
REF_FRAME      = TEME
TIME_SYSTEM    = UTC
MEAN_ELEMENT_THEORY = SGP/SGP4

EPOCH          = 2025-12-22T04:00:01.998720
MEAN_MOTION    = 15.88770964
ECCENTRICITY   = .0004545
INCLINATION    = 69.9976
RA_OF_ASC_NODE = 223.2787
ARG_OF_PERICENTER = 268.8142
MEAN_ANOMALY   = 74.1343

EPHEMERIS_TYPE = 0
CLASSIFICATION_TYPE = U
NORAD_CAT_ID   = 67079
ELEMENT_SET_NO = 999
REV_AT_EPOCH   = 249
BSTAR          = .28256E-3
MEAN_MOTION_DOT = .80265E-3
MEAN_MOTION_DDOT = 0

